{"type": "FeatureCollection", "features": [ {"type": "Feature", "properties": {"norad_id": 31228, "name": "FENGYUN 1C DEB", "group": "fengyun-1c-debris", "lat": -7.216585900475409, "lon": 74.84917287427311, "alt_km": 776.0290698689314, "timestamp": "2025-12-10T05:46:14.103360+00:00", "meta": {"OBJECT_NAME": "FENGYUN 1C DEB", "OBJECT_ID": "1999-025BLJ", "EPOCH": "2025-12-09T13:00:45.584928", "MEAN_MOTION": 14.36904693, "ECCENTRICITY": 0.0079237, "INCLINATION": 98.8684, "RA_OF_ASC_NODE": 255.2628, "ARG_OF_PERICENTER": 95.2738, "MEAN_ANOMALY": 81.1286, "EPHEMERIS_TYPE": 0, "CLASSIFICATION_TYPE": "U", "NORAD_CAT_ID": 31228, "ELEMENT_SET_NO": 999, "REV_AT_EPOCH": 97523, "BSTAR": 0.00083207, "MEAN_MOTION_DOT": 2.506e-05, "MEAN_MOTION_DDOT": 0}, "tle": {"line1": "1 31228U 99025BLJ 25343.54219427  .00002506  00000+0  83207-3 0  9997", "line2": "2 31228  98.8684 255.2628 0079237  95.2738  81.1286 14.36904693975230"}}, "geometry": {"type": "Point", "coordinates": [74.84917287427311, -7.216585900475409]}}, {"type": "Feature", "properties": {"norad_id": 31229, "name": "FENGYUN 1C DEB", "group": "fengyun-1c-debris", "lat": 60.04168515864892, "lon": -104.74781890047423, "alt_km": 851.2508618603542, "timestamp": "2025-12-10T05:46:14.103370+00:00", "meta": {"OBJECT_NAME": "FENGYUN 1C DEB", "OBJECT_ID": "1999-025BLK", "EPOCH": "2025-12-09T03:52:40.376352", "MEAN_MOTION": 14.21783414, "ECCENTRICITY": 0.00527704, "INCLINATION": 98.8673, "RA_OF_ASC_NODE": 58.4536, "ARG_OF_PERICENTER": 307.2168, "MEAN_ANOMALY": 52.42, "EPHEMERIS_TYPE": 0, "CLASSIFICATION_TYPE": "U", "NORAD_CAT_ID": 31229, "ELEMENT_SET_NO": 999, "REV_AT_EPOCH": 96033, "BSTAR": 0.0017086204, "MEAN_MOTION_DOT": 3.769e-05, "MEAN_MOTION_DDOT": 0}, "tle": {"line1": "1 31229U 99025BLK 25343.16157843  .00003769  00000+0  17086-2 0  9992", "line2": "2 31229  98.8673  58.4536 0052770 307.2168  52.4200 14.21783414960338"}}, "geometry": {"type": "Point", "coordinates": [-104.74781890047423, 60.04168515864892]}}, {"type": "Feature", "properties": {"norad_id": 31231, "name": "FENGYUN 1C DEB", "group": "fengyun-1c-debris", "lat": 9.277891005231739, "lon": 141.68143352796815, "alt_km": 670.31790896031, "timestamp": "2025-12-10T05:46:14.103380+00:00", "meta": {"OBJECT_NAME": "FENGYUN 1C DEB", "OBJECT_ID": "1999-025BLM", "EPOCH": "2025-12-07T04:28:47.589888", "MEAN_MOTION": 14.75193183, "ECCENTRICITY": 0.01468739, "INCLINATION": 98.8605, "RA_OF_ASC_NODE": 139.7987, "ARG_OF_PERICENTER": 123.9175, "MEAN_ANOMALY": 237.6099, "EPHEMERIS_TYPE": 0, "CLASSIFICATION_TYPE": "U", "NORAD_CAT_ID": 31231, "ELEMENT_SET_NO": 999, "REV_AT_EPOCH": 62939, "BSTAR": 0.0055087948, "MEAN_MOTION_DOT": 0.00044548, "MEAN_MOTION_DDOT": 0}, "tle": {"line1": "1 31231U 99025BLM 25341.18666192  .00044548  00000+0  55088-2 0  9991", "line2": "2 31231  98.8605 139.7987 0146873 123.9175 237.6099 14.75193183629396"}}, "geometry": {"type": "Point", "coordinates": [141.68143352796815, 9.277891005231739]}}, {"type": "Feature", "properties": {"norad_id": 31234, "name": "FENGYUN 1C DEB", "group": "fengyun-1c-debris", "lat": -27.299206914198887, "lon": 153.73465673925085, "alt_km": 824.4921030933938, "timestamp": "2025-12-10T05:46:14.103390+00:00", "meta": {"OBJECT_NAME": "FENGYUN 1C DEB", "OBJECT_ID": "1999-025BLQ", "EPOCH": "2025-12-08T16:58:03.836640", "MEAN_MOTION": 14.08010887, "ECCENTRICITY": 0.00729408, "INCLINATION": 98.7836, "RA_OF_ASC_NODE": 336.8196, "ARG_OF_PERICENTER": 238.3597, "MEAN_ANOMALY": 121.0443, "EPHEMERIS_TYPE": 0, "CLASSIFICATION_TYPE": "U", "NORAD_CAT_ID": 31234, "ELEMENT_SET_NO": 999, "REV_AT_EPOCH": 72663, "BSTAR": 0.00057434574, "MEAN_MOTION_DOT": 9.57e-06, "MEAN_MOTION_DDOT": 0}, "tle": {"line1": "1 31234U 99025BLQ 25342.70698885  .00000957  00000+0  57435-3 0  9992", "line2": "2 31234  98.7836 336.8196 0072940 238.3597 121.0443 14.08010887726637"}}, "geometry": {"type": "Point", "coordinates": [153.73465673925085, -27.299206914198887]}}, {"type": "Feature", "properties": {"norad_id": 31235, "name": "FENGYUN 1C DEB", "group": "fengyun-1c-debris", "lat": 77.95106838096646, "lon": -3.1107096443151687, "alt_km": 774.8353627826227, "timestamp": "2025-12-10T05:46:14.103400+00:00", "meta": {"OBJECT_NAME": "FENGYUN 1C DEB", "OBJECT_ID": "1999-025BLR", "EPOCH": "2025-12-09T15:46:44.269248", "MEAN_MOTION": 14.18551897, "ECCENTRICITY": 0.0179681, "INCLINATION": 98.4692, "RA_OF_ASC_NODE": 132.0623, "ARG_OF_PERICENTER": 31.0916, "MEAN_ANOMALY": 330.0747, "EPHEMERIS_TYPE": 0, "CLASSIFICATION_TYPE": "U", "NORAD_CAT_ID": 31235, "ELEMENT_SET_NO": 999, "REV_AT_EPOCH": 63123, "BSTAR": 0.0038656, "MEAN_MOTION_DOT": 9.358e-05, "MEAN_MOTION_DDOT": 0}, "tle": {"line1": "1 31235U 99025BLR 25343.65745682  .00009358  00000+0  38656-2 0  9993", "line2": "2 31235  98.4692 132.0623 0179681  31.0916 330.0747 14.18551897631231"}}, "geometry": {"type": "Point", "coordinates": [-3.1107096443151687, 77.95106838096646]}}, {"type": "Feature", "properties": {"norad_id": 31236, "name": "FENGYUN 1C DEB", "group": "fengyun-1c-debris", "lat": -78.0404614952788, "lon": 74.45909966688141, "alt_km": 1152.300456594614, "timestamp": "2025-12-10T05:46:14.103410+00:00", "meta": {"OBJECT_NAME": "FENGYUN 1C DEB", "OBJECT_ID": "1999-025BLS", "EPOCH": "2025-12-08T03:59:52.265760", "MEAN_MOTION": 13.85721801, "ECCENTRICITY": 0.03144927, "INCLINATION": 98.5451, "RA_OF_ASC_NODE": 297.7823, "ARG_OF_PERICENTER": 59.175, "MEAN_ANOMALY": 303.9956, "EPHEMERIS_TYPE": 0, "CLASSIFICATION_TYPE": "U", "NORAD_CAT_ID": 31236, "ELEMENT_SET_NO": 999, "REV_AT_EPOCH": 60961, "BSTAR": 0.006018133, "MEAN_MOTION_DOT": 0.00010125, "MEAN_MOTION_DDOT": 0}, "tle": {"line1": "1 31236U 99025BLS 25342.16657715  .00010125  00000+0  60181-2 0  9990", "line2": "2 31236  98.5451 297.7823 0314492  59.1750 303.9956 13.85721801609610"}}, "geometry": {"type": "Point", "coordinates": [74.45909966688141, -78.0404614952788]}}, {"type": "Feature", "properties": {"norad_id": 31237, "name": "FENGYUN 1C DEB", "group": "fengyun-1c-debris", "lat": 36.54936766421623, "lon": 169.49848729688992, "alt_km": 837.6357420160066, "timestamp": "2025-12-10T05:46:14.103420+00:00", "meta": {"OBJECT_NAME": "FENGYUN 1C DEB", "OBJECT_ID": "1999-025BLT", "EPOCH": "2025-12-09T17:21:50.349024", "MEAN_MOTION": 14.31373917, "ECCENTRICITY": 0.0089167, "INCLINATION": 98.4537, "RA_OF_ASC_NODE": 342.6658, "ARG_OF_PERICENTER": 357.9277, "MEAN_ANOMALY": 2.1525, "EPHEMERIS_TYPE": 0, "CLASSIFICATION_TYPE": "U", "NORAD_CAT_ID": 31237, "ELEMENT_SET_NO": 999, "REV_AT_EPOCH": 97223, "BSTAR": 0.0010251, "MEAN_MOTION_DOT": 2.796e-05, "MEAN_MOTION_DDOT": 0}, "tle": {"line1": "1 31237U 99025BLT 25343.72349941  .00002796  00000+0  10251-2 0  9991", "line2": "2 31237  98.4537 342.6658 0089167 357.9277   2.1525 14.31373917972236"}}, "geometry": {"type": "Point", "coordinates": [169.49848729688992, 36.54936766421623]}}, {"type": "Feature", "properties": {"norad_id": 31239, "name": "FENGYUN 1C DEB", "group": "fengyun-1c-debris", "lat": 11.095696596503865, "lon": 160.98140634430953, "alt_km": 832.5668730959496, "timestamp": "2025-12-10T05:46:14.103430+00:00", "meta": {"OBJECT_NAME": "FENGYUN 1C DEB", "OBJECT_ID": "1999-025BLV", "EPOCH": "2025-12-09T10:57:59.615136", "MEAN_MOTION": 14.09855398, "ECCENTRICITY": 0.00491418, "INCLINATION": 98.7582, "RA_OF_ASC_NODE": 338.4865, "ARG_OF_PERICENTER": 207.4234, "MEAN_ANOMALY": 307.1401, "EPHEMERIS_TYPE": 0, "CLASSIFICATION_TYPE": "U", "NORAD_CAT_ID": 31239, "ELEMENT_SET_NO": 999, "REV_AT_EPOCH": 95965, "BSTAR": 0.00065085696, "MEAN_MOTION_DOT": 1.115e-05, "MEAN_MOTION_DDOT": 0}, "tle": {"line1": "1 31239U 99025BLV 25343.45693999  .00001115  00000+0  65086-3 0  9999", "line2": "2 31239  98.7582 338.4865 0049141 207.4234 307.1401 14.09855398959659"}}, "geometry": {"type": "Point", "coordinates": [160.98140634430953, 11.095696596503865]}}, {"type": "Feature", "properties": {"norad_id": 31241, "name": "FENGYUN 1C DEB", "group": "fengyun-1c-debris", "lat": -73.85199450543104, "lon": 165.05668344780378, "alt_km": 774.0380818140757, "timestamp": "2025-12-10T05:46:14.103440+00:00", "meta": {"OBJECT_NAME": "FENGYUN 1C DEB", "OBJECT_ID": "1999-025BLX", "EPOCH": "2025-12-08T20:44:47.484672", "MEAN_MOTION": 14.38670905, "ECCENTRICITY": 0.0066726, "INCLINATION": 99.2345, "RA_OF_ASC_NODE": 129.3914, "ARG_OF_PERICENTER": 192.2722, "MEAN_ANOMALY": 167.684, "EPHEMERIS_TYPE": 0, "CLASSIFICATION_TYPE": "U", "NORAD_CAT_ID": 31241, "ELEMENT_SET_NO": 999, "REV_AT_EPOCH": 97635, "BSTAR": 0.00098189, "MEAN_MOTION_DOT": 3.04e-05, "MEAN_MOTION_DDOT": 0}, "tle": {"line1": "1 31241U 99025BLX 25342.86443848  .00003040  00000+0  98189-3 0  9991", "line2": "2 31241  99.2345 129.3914 0066726 192.2722 167.6840 14.38670905976351"}}, "geometry": {"type": "Point", "coordinates": [165.05668344780378, -73.85199450543104]}}, {"type": "Feature", "properties": {"norad_id": 31243, "name": "FENGYUN 1C DEB", "group": "fengyun-1c-debris", "lat": 49.736832968270996, "lon": -144.93952632415449, "alt_km": 830.9395918010268, "timestamp": "2025-12-10T05:46:14.103450+00:00", "meta": {"OBJECT_NAME": "FENGYUN 1C DEB", "OBJECT_ID": "1999-025BLZ", "EPOCH": "2025-12-09T08:40:37.935552", "MEAN_MOTION": 14.07155887, "ECCENTRICITY": 0.00660906, "INCLINATION": 98.7505, "RA_OF_ASC_NODE": 23.7321, "ARG_OF_PERICENTER": 177.6136, "MEAN_ANOMALY": 182.5362, "EPHEMERIS_TYPE": 0, "CLASSIFICATION_TYPE": "U", "NORAD_CAT_ID": 31243, "ELEMENT_SET_NO": 999, "REV_AT_EPOCH": 69260, "BSTAR": 0.0011549207, "MEAN_MOTION_DOT": 1.93e-05, "MEAN_MOTION_DDOT": 0}, "tle": {"line1": "1 31243U 99025BLZ 25343.36155018  .00001930  00000+0  11549-2 0  9998", "line2": "2 31243  98.7505  23.7321 0066090 177.6136 182.5362 14.07155887692605"}}, "geometry": {"type": "Point", "coordinates": [-144.93952632415449, 49.736832968270996]}}]}